{"type":"FeatureCollection","features":[{"type":"Feature","properties":{"name":"us_outline_20km","country":"US","members":"USA (50 states + DC) + PRI","buffer_m":20000.0,"simplify_deg":0.02,"source":"Natural Earth 1:10m admin-0 countries (public domain)","source_url":"https://raw.githubusercontent.com/nvkelso/natural-earth-vector/master/geojson/ne_10m_admin_0_countries.geojson","source_sha256":"239eec57ac17f100a11e2536cffc56752c318b50ae765b0918ff7aab4ce8f255","builder":"scripts/build_us_outline.py"},"geometry":{"type":"MultiPolygon","coordinates":[[[[-160.374,22.0],[-160.193,22.165],[-160.072,22.188],[-159.956,22.153],[-159.836,22.3],[-159.598,22.41],[-159.399,22.416],[-159.265,22.381],[-159.157,22.294],[-159.104,22.186],[-159.16,21.878],[-159.229,21.792],[-159.392,21.693],[-159.663,21.72],[-159.892,21.847],[-160.077,21.643],[-160.262,21.606],[-160.385,21.678],[-160.431,21.771],[-160.433,21.897],[-160.374,22.0]]],[[[-161.81,23.18],[-161.765,23.125],[-161.747,23.023],[-161.82,22.9],[-161.979,22.86],[-162.108,22.934],[-162.14,23.072],[-162.08,23.176],[-161.951,23.227],[-161.81,23.18]]],[[[-164.584,23.722],[-164.504,23.591],[-164.545,23.459],[-164.603,23.413],[-164.713,23.39],[-164.855,23.454],[-164.904,23.579],[-164.84,23.71],[-164.734,23.758],[-164.584,23.722]]],[[[-168.187,24.947],[-168.184,25.088],[-168.067,25.186],[-167.91,25.177],[-167.807,25.066],[-167.812,24.936],[-167.919,24.835],[-168.072,24.834],[-168.187,24.947]]],[[[-171.572,25.641],[-171.704,25.573],[-171.861,25.614],[-171.937,25.736],[-171.915,25.856],[-171.789,25.944],[-171.624,25.93],[-171.567,25.886],[-171.525,25.792],[-171.572,25.641]]],[[[-173.798,26.171],[-173.763,26.026],[-173.79,25.96],[-173.878,25.891],[-174.031,25.887],[-174.15,25.989],[-174.16,26.112],[-174.072,26.224],[-173.923,26.248],[-173.798,26.171]]],[[[-178.086,28.367],[-178.169,28.246],[-178.338,28.209],[-178.475,28.289],[-178.508,28.395],[-178.422,28.54],[-178.268,28.581],[-178.128,28.511],[-178.086,28.367]]],[[[-179.091,51.56],[-178.92,51.574],[-178.742,51.52],[-178.633,51.413],[-178.626,51.309],[-178.685,51.238],[-178.951,51.07],[-179.058,51.04],[-179.231,51.05],[-179.406,51.166],[-179.422,51.319],[-179.336,51.411],[-179.091,51.56]]],[[[-179.942,51.913],[-180.0,51.826],[-180.0,52.085],[-179.939,52.016],[-179.942,51.913]]],[[[-178.815,51.568],[-179.026,51.628],[-179.147,51.777],[-179.136,51.848],[-179.079,51.921],[-178.946,51.999],[-178.725,52.01],[-178.498,51.909],[-178.445,51.985],[-178.308,52.066],[-177.976,52.104],[-177.828,52.087],[-177.703,52.029],[-177.459,52.005],[-177.358,52.079],[-177.244,52.11],[-176.955,52.087],[-176.648,52.165],[-176.448,52.153],[-176.322,52.251],[-176.15,52.288],[-175.936,52.268],[-175.767,52.17],[-175.557,52.134],[-175.413,52.195],[-175.018,52.281],[-174.774,52.301],[-174.619,52.463],[-174.219,52.597],[-174.087,52.593],[-173.892,52.534],[-173.743,52.432],[-173.7,52.328],[-172.925,52.268],[-172.871,52.38],[-172.78,52.469],[-172.584,52.556],[-172.425,52.579],[-172.096,52.473],[-172.031,52.413],[-172.008,52.343],[-172.039,52.249],[-172.135,52.173],[-172.457,52.076],[-172.666,52.077],[-172.732,51.975],[-172.893,51.911],[-173.48,51.842],[-173.881,51.866],[-174.11,51.923],[-174.33,51.87],[-174.695,51.837],[-175.441,51.844],[-175.713,51.754],[-175.873,51.641],[-176.413,51.544],[-176.67,51.439],[-177.036,51.418],[-177.221,51.504],[-177.447,51.526],[-177.805,51.43],[-178.007,51.425],[-178.314,51.544],[-178.387,51.637],[-178.378,51.719],[-178.451,51.773],[-178.557,51.624],[-178.815,51.568]]],[[[-169.852,56.797],[-169.491,56.795],[-169.337,56.765],[-169.174,56.662],[-169.156,56.557],[-169.248,56.464],[-169.444,56.38],[-169.628,56.363],[-169.791,56.388],[-170.026,56.497],[-170.11,56.589],[-170.108,56.658],[-170.058,56.722],[-169.852,56.797]]],[[[-170.598,57.345],[-170.197,57.425],[-170.045,57.427],[-169.869,57.377],[-169.796,57.316],[-169.773,57.245],[-169.879,57.082],[-170.037,56.988],[-170.172,56.939],[-170.358,56.931],[-170.523,56.979],[-170.711,57.101],[-170.742,57.176],[-170.725,57.252],[-170.598,57.345]]],[[[-172.176,60.545],[-171.891,60.4],[-171.849,60.335],[-171.86,60.267],[-171.967,60.18],[-172.206,60.129],[-172.669,60.154],[-172.952,60.229],[-173.338,60.384],[-173.405,60.445],[-173.408,60.547],[-173.461,60.598],[-173.478,60.67],[-173.432,60.751],[-173.334,60.816],[-173.194,60.855],[-172.98,60.86],[-172.851,60.83],[-172.634,60.715],[-172.554,60.61],[-172.176,60.545]]],[[[-170.606,63.109],[-170.692,63.182],[-170.987,63.247],[-171.259,63.156],[-171.456,63.141],[-171.937,63.221],[-172.08,63.284],[-172.201,63.385],[-172.252,63.497],[-172.243,63.591],[-172.14,63.75],[-172.131,63.839],[-172.071,63.895],[-171.891,63.961],[-171.61,63.974],[-171.354,63.912],[-171.236,63.81],[-171.0,63.78],[-170.818,63.848],[-170.514,63.882],[-170.112,63.855],[-169.763,63.725],[-169.667,63.626],[-169.292,63.541],[-168.54,63.473],[-168.381,63.417],[-168.291,63.326],[-168.299,63.258],[-168.374,63.153],[-168.544,63.038],[-168.788,62.986],[-169.131,63.004],[-169.221,62.89],[-169.582,62.77],[-169.976,62.817],[-170.088,62.87],[-170.208,63.007],[-170.441,63.038],[-170.606,63.109]]],[[[-167.73,64.84],[-167.981,64.782],[-168.258,64.795],[-168.461,64.875],[-168.519,64.979],[-168.468,65.058],[-168.296,65.135],[-168.081,65.164],[-167.875,65.151],[-167.728,65.109],[-167.613,65.017],[-167.609,64.938],[-167.73,64.84]]],[[[-68.019,18.269],[-67.816,18.292],[-67.691,18.211],[-67.657,18.072],[-67.76,17.909],[-67.943,17.879],[-68.082,17.972],[-68.123,18.129],[-68.084,18.216],[-68.019,18.269]]],[[[-65.253,17.956],[-65.472,17.907],[-65.665,17.941],[-65.826,17.817],[-66.171,17.745],[-66.516,17.797],[-66.736,17.797],[-66.914,17.749],[-67.049,17.779],[-67.241,17.76],[-67.331,17.81],[-67.394,17.91],[-67.368,18.171],[-67.444,18.289],[-67.453,18.409],[-67.275,18.646],[-67.125,18.702],[-66.9,18.668],[-66.373,18.672],[-65.867,18.633],[-65.536,18.55],[-65.457,18.477],[-65.37,18.518],[-65.243,18.512],[-65.12,18.449],[-65.055,18.308],[-65.11,18.05],[-65.253,17.956]]],[[[-156.213,19.858],[-156.051,20.022],[-156.091,20.217],[-156.008,20.387],[-155.869,20.444],[-155.665,20.411],[-155.526,20.307],[-155.332,20.25],[-155.032,20.074],[-154.826,19.819],[-154.787,19.718],[-154.655,19.609],[-154.624,19.522],[-154.635,19.428],[-154.728,19.297],[-154.887,19.183],[-155.039,19.113],[-155.229,19.077],[-155.37,18.998],[-155.477,18.835],[-155.581,18.749],[-155.736,18.735],[-155.997,18.888],[-156.086,19.019],[-156.11,19.142],[-156.08,19.321],[-156.25,19.709],[-156.213,19.858]]],[[[-156.889,20.557],[-156.991,20.554],[-157.094,20.601],[-157.242,20.825],[-157.254,20.907],[-157.396,20.943],[-157.48,21.036],[-157.493,21.166],[-157.432,21.303],[-157.36,21.376],[-157.257,21.402],[-157.062,21.372],[-156.936,21.392],[-156.844,21.353],[-156.659,21.337],[-156.397,21.121],[-156.17,21.109],[-155.906,20.957],[-155.794,20.804],[-155.816,20.631],[-155.942,20.5],[-156.266,20.404],[-156.391,20.407],[-156.502,20.337],[-156.693,20.325],[-156.79,20.358],[-156.88,20.462],[-156.889,20.557]]],[[[-158.402,21.714],[-158.035,21.884],[-157.912,21.881],[-157.838,21.844],[-157.675,21.633],[-157.559,21.55],[-157.459,21.345],[-157.481,21.215],[-157.575,21.12],[-157.683,21.08],[-157.837,21.075],[-157.994,21.128],[-158.127,21.116],[-158.239,21.166],[-158.471,21.558],[-158.449,21.66],[-158.402,21.714]]],[[[-119.536,33.467],[-119.347,33.409],[-119.237,33.303],[-119.223,33.191],[-119.315,33.073],[-119.419,33.038],[-119.58,33.05],[-119.705,33.11],[-119.774,33.193],[-119.793,33.292],[-119.746,33.391],[-119.679,33.438],[-119.536,33.467]]],[[[-96.136,28.324],[-96.74,27.909],[-97.073,27.425],[-97.181,27.141],[-97.175,26.949],[-96.976,26.221],[-96.944,25.933],[-97.02,25.821],[-97.163,25.783],[-97.264,25.688],[-97.46,25.677],[-97.752,25.858],[-97.871,25.883],[-98.079,25.862],[-98.279,25.902],[-98.596,26.067],[-98.728,26.077],[-98.892,26.188],[-99.151,26.237],[-99.257,26.305],[-99.346,26.465],[-99.428,26.739],[-99.656,27.012],[-99.648,27.172],[-99.722,27.301],[-99.686,27.415],[-99.706,27.461],[-99.83,27.521],[-100.014,27.685],[-100.229,28.022],[-100.446,28.179],[-100.553,28.438],[-100.811,28.85],[-100.848,28.997],[-100.966,29.136],[-101.449,29.463],[-101.543,29.587],[-102.123,29.622],[-102.25,29.661],[-102.342,29.606],[-102.544,29.578],[-102.63,29.419],[-102.685,29.133],[-102.847,29.026],[-102.992,28.858],[-103.136,28.805],[-103.462,28.861],[-103.922,29.108],[-104.158,29.181],[-104.362,29.345],[-104.589,29.461],[-104.707,29.573],[-104.873,29.877],[-104.908,30.038],[-104.893,30.136],[-105.042,30.337],[-105.078,30.46],[-105.277,30.615],[-105.512,30.723],[-106.108,31.234],[-106.346,31.34],[-106.507,31.578],[-108.005,31.597],[-108.021,31.26],[-108.066,31.201],[-108.174,31.151],[-111.094,31.155],[-114.899,32.333],[-114.996,32.397],[-115.033,32.51],[-117.19,32.361],[-117.289,32.417],[-117.337,32.512],[-117.446,32.61],[-117.496,32.825],[-117.482,32.945],[-117.542,33.068],[-117.664,33.209],[-118.174,33.546],[-118.218,33.537],[-118.111,33.407],[-118.101,33.25],[-118.213,33.143],[-118.391,33.128],[-118.156,32.892],[-118.153,32.75],[-118.273,32.651],[-118.496,32.632],[-118.677,32.75],[-118.82,32.988],[-118.784,33.132],[-118.633,33.212],[-118.794,33.39],[-118.818,33.461],[-118.767,33.594],[-118.601,33.657],[-118.64,33.741],[-118.634,33.857],[-118.857,33.826],[-119.314,33.986],[-119.372,33.899],[-119.474,33.829],[-119.672,33.783],[-119.864,33.784],[-120.101,33.713],[-120.243,33.744],[-120.364,33.835],[-120.589,33.895],[-120.666,34.027],[-120.637,34.126],[-120.582,34.178],[-120.386,34.256],[-120.207,34.197],[-119.983,34.25],[-120.167,34.292],[-120.508,34.27],[-120.604,34.308],[-120.826,34.474],[-120.865,34.574],[-120.838,34.683],[-120.891,34.905],[-120.868,35.004],[-121.061,35.125],[-121.115,35.226],[-121.11,35.305],[-121.304,35.477],[-121.473,35.567],[-121.534,35.69],[-121.649,35.79],[-121.839,36.039],[-121.968,36.103],[-122.099,36.224],[-122.203,36.604],[-122.083,36.772],[-122.266,36.822],[-122.573,37.072],[-122.635,37.19],[-122.63,37.325],[-122.736,37.478],[-122.736,37.718],[-122.933,37.816],[-123.099,37.826],[-123.204,37.883],[-123.254,38.008],[-123.191,38.141],[-123.275,38.23],[-123.307,38.328],[-123.492,38.437],[-123.935,38.843],[-123.972,38.971],[-123.935,39.052],[-124.054,39.321],[-124.013,39.558],[-124.066,39.736],[-124.589,40.213],[-124.638,40.488],[-124.363,40.986],[-124.4,41.154],[-124.304,41.429],[-124.368,41.613],[-124.496,41.734],[-124.499,41.814],[-124.45,41.914],[-124.571,42.027],[-124.65,42.214],[-124.682,42.454],[-124.645,42.578],[-124.743,42.686],[-124.811,42.843],[-124.682,43.079],[-124.635,43.368],[-124.527,43.487],[-124.475,43.598],[-124.398,43.902],[-124.319,44.599],[-124.322,44.809],[-124.225,45.172],[-124.257,45.346],[-124.196,45.667],[-124.237,45.746],[-124.215,45.854],[-124.246,45.961],[-124.191,46.052],[-124.338,46.257],[-124.329,46.671],[-124.367,46.805],[-124.435,46.892],[-124.467,47.184],[-124.566,47.3],[-124.67,47.659],[-124.869,47.822],[-124.999,48.144],[-124.966,48.289],[-124.998,48.393],[-124.967,48.471],[-124.823,48.554],[-124.643,48.563],[-124.485,48.536],[-123.927,48.341],[-123.332,48.308],[-123.27,48.336],[-123.416,48.467],[-123.438,48.649],[-123.331,48.753],[-123.166,48.801],[-123.337,48.898],[-123.357,49.031],[-123.241,49.143],[-123.09,49.172],[-122.892,49.145],[-122.758,49.169],[-95.432,49.172],[-95.429,49.403],[-95.355,49.496],[-95.214,49.546],[-94.906,49.529],[-94.68,49.456],[-94.581,49.372],[-94.441,48.885],[-94.249,48.889],[-94.074,48.825],[-93.805,48.81],[-93.628,48.732],[-93.304,48.807],[-92.891,48.788],[-92.498,48.686],[-92.257,48.521],[-91.92,48.496],[-91.776,48.371],[-91.613,48.337],[-91.428,48.231],[-91.055,48.382],[-90.877,48.414],[-90.695,48.371],[-90.59,48.283],[-90.059,48.29],[-89.84,48.192],[-89.398,48.168],[-88.723,48.427],[-88.419,48.483],[-88.26,48.469],[-84.734,47.048],[-84.614,46.937],[-84.541,46.721],[-84.496,46.683],[-84.157,46.723],[-83.936,46.66],[-83.858,46.572],[-83.881,46.439],[-83.848,46.297],[-83.54,46.287],[-83.41,46.234],[-83.214,46.056],[-83.211,45.969],[-83.259,45.884],[-82.415,45.504],[-82.32,45.415],[-82.281,45.323],[-81.898,43.576],[-82.171,43.011],[-82.249,42.672],[-82.316,42.531],[-82.678,42.261],[-82.895,42.18],[-82.917,42.032],[-82.894,41.977],[-82.618,41.848],[-82.505,41.85],[-81.366,42.374],[-80.325,42.535],[-79.241,42.921],[-79.307,43.073],[-79.299,43.233],[-79.413,43.418],[-79.408,43.52],[-79.325,43.604],[-78.86,43.776],[-78.685,43.809],[-76.957,43.803],[-76.673,44.169],[-76.517,44.296],[-76.299,44.446],[-76.053,44.545],[-75.871,44.71],[-75.443,44.992],[-74.985,45.172],[-71.697,45.188],[-71.695,45.27],[-71.611,45.361],[-71.416,45.454],[-71.208,45.458],[-71.024,45.521],[-70.882,45.684],[-70.67,45.824],[-70.569,45.949],[-70.529,46.259],[-70.423,46.431],[-70.312,46.513],[-70.246,46.774],[-69.488,47.535],[-69.342,47.618],[-69.194,47.634],[-68.943,47.586],[-68.813,47.493],[-68.789,47.413],[-68.371,47.535],[-68.148,47.523],[-67.786,47.333],[-67.571,47.151],[-67.542,47.04],[-67.527,46.003],[-67.501,45.909],[-67.52,45.797],[-67.31,45.758],[-67.195,45.667],[-67.167,45.556],[-67.196,45.459],[-67.175,45.371],[-67.014,45.314],[-66.95,45.26],[-66.74,44.951],[-66.735,44.768],[-66.822,44.667],[-67.115,44.464],[-67.323,44.418],[-67.462,44.287],[-67.609,44.265],[-67.709,44.288],[-67.948,44.173],[-68.072,44.155],[-68.23,44.005],[-68.38,43.954],[-68.494,43.863],[-68.688,43.832],[-68.961,43.88],[-69.089,43.791],[-69.289,43.755],[-69.719,43.542],[-69.864,43.525],[-69.957,43.548],[-70.003,43.461],[-70.193,43.281],[-70.327,43.202],[-70.363,43.11],[-70.566,42.865],[-70.476,42.83],[-70.376,42.738],[-70.358,42.6],[-70.426,42.51],[-70.638,42.401],[-70.524,42.319],[-70.425,42.185],[-70.272,42.255],[-70.066,42.246],[-69.894,42.173],[-69.767,42.033],[-69.684,41.838],[-69.707,41.628],[-69.806,41.452],[-69.72,41.293],[-69.775,41.142],[-69.913,41.072],[-70.089,41.062],[-70.246,41.087],[-70.444,41.179],[-70.582,41.178],[-70.669,41.099],[-70.81,41.068],[-70.987,41.12],[-71.046,41.177],[-71.07,41.26],[-71.131,41.299],[-71.228,41.296],[-71.32,41.247],[-71.322,41.097],[-71.433,40.995],[-71.659,40.972],[-71.787,40.881],[-73.07,40.474],[-73.554,40.396],[-73.736,40.404],[-73.891,39.658],[-74.158,39.306],[-74.413,39.141],[-74.643,38.86],[-74.848,38.762],[-74.824,38.364],[-74.984,38.013],[-75.162,37.766],[-75.349,37.678],[-75.385,37.63],[-75.378,37.536],[-75.452,37.373],[-75.587,37.223],[-75.616,37.103],[-75.776,36.966],[-75.57,36.331],[-75.284,35.816],[-75.243,35.674],[-75.272,35.319],[-75.347,35.138],[-75.461,35.066],[-75.808,34.974],[-75.97,34.881],[-76.219,34.68],[-76.341,34.5],[-76.429,34.43],[-76.589,34.415],[-76.748,34.521],[-77.099,34.47],[-77.57,34.191],[-77.768,33.779],[-77.852,33.697],[-78.008,33.67],[-78.173,33.739],[-78.365,33.736],[-78.635,33.634],[-78.939,33.335],[-78.995,33.099],[-79.143,32.978],[-79.21,32.878],[-79.279,32.839],[-79.401,32.828],[-79.892,32.46],[-80.233,32.328],[-80.32,32.196],[-80.512,32.104],[-80.625,32.0],[-80.666,31.896],[-80.92,31.65],[-80.974,31.468],[-81.068,31.317],[-81.088,31.154],[-81.213,31.01],[-81.244,30.773],[-81.188,30.321],[-81.051,29.815],[-80.883,29.431],[-80.339,28.535],[-80.332,28.424],[-80.392,28.328],[-80.376,28.157],[-80.169,27.759],[-79.883,27.018],[-79.838,26.807],[-79.836,26.553],[-79.916,26.075],[-79.931,25.763],[-80.004,25.565],[-80.008,25.394],[-80.197,25.058],[-80.538,24.754],[-81.035,24.512],[-81.152,24.516],[-81.351,24.451],[-81.429,24.462],[-81.671,24.383],[-81.865,24.368],[-81.971,24.434],[-82.062,24.381],[-82.15,24.371],[-82.285,24.441],[-82.342,24.609],[-82.299,24.707],[-82.227,24.759],[-82.075,24.771],[-81.946,24.688],[-81.474,24.931],[-81.361,24.924],[-81.236,24.862],[-80.962,24.959],[-81.144,24.951],[-81.283,25.038],[-81.363,25.172],[-81.344,25.376],[-81.437,25.566],[-81.562,25.662],[-81.75,25.691],[-81.846,25.747],[-81.994,26.062],[-82.025,26.248],[-82.177,26.254],[-82.345,26.365],[-82.481,26.756],[-82.687,27.118],[-82.898,27.408],[-82.93,27.5],[-82.92,27.598],[-83.021,27.747],[-83.057,27.875],[-82.982,28.083],[-82.982,28.247],[-82.853,28.575],[-82.898,28.696],[-82.887,28.85],[-82.954,28.972],[-83.078,28.953],[-83.192,28.999],[-83.362,29.277],[-83.557,29.413],[-83.614,29.555],[-83.733,29.647],[-83.826,29.794],[-84.076,29.913],[-84.133,29.898],[-84.183,29.794],[-84.27,29.733],[-84.408,29.711],[-84.487,29.642],[-84.866,29.456],[-85.048,29.425],[-85.485,29.542],[-85.584,29.655],[-85.618,29.827],[-85.776,29.962],[-86.144,30.14],[-86.403,30.204],[-86.577,30.218],[-87.272,30.148],[-87.757,30.059],[-88.623,30.043],[-88.605,29.896],[-88.647,29.726],[-88.96,29.385],[-88.875,29.335],[-88.809,29.229],[-88.811,29.133],[-88.868,29.016],[-89.044,28.834],[-89.225,28.825],[-89.395,28.749],[-89.51,28.771],[-89.572,28.815],[-89.617,28.912],[-89.592,29.05],[-89.768,29.129],[-89.813,29.128],[-90.117,28.933],[-90.315,28.88],[-90.426,28.868],[-90.569,28.9],[-90.749,28.861],[-90.952,28.874],[-91.083,28.928],[-91.144,29.026],[-91.368,29.097],[-91.465,29.161],[-91.514,29.22],[-91.543,29.355],[-91.631,29.371],[-91.701,29.327],[-91.842,29.303],[-92.105,29.404],[-92.24,29.356],[-92.353,29.358],[-92.736,29.43],[-93.23,29.594],[-93.528,29.585],[-93.679,29.563],[-93.822,29.501],[-94.028,29.502],[-94.521,29.307],[-94.602,29.188],[-95.257,28.735],[-96.136,28.324]],[[-75.8,35.386],[-75.785,35.393],[-75.794,35.393],[-75.8,35.386]],[[-119.669,34.221],[-119.628,34.228],[-119.618,34.23],[-119.624,34.232],[-119.669,34.221]],[[-89.071,29.823],[-89.07,29.82],[-89.059,29.839],[-89.071,29.823]],[[-89.031,29.897],[-89.031,29.911],[-89.035,29.89],[-89.031,29.897]]],[[[178.196,51.613],[177.98,51.739],[177.936,51.82],[177.948,51.89],[178.002,51.952],[178.189,52.015],[178.226,52.077],[178.336,52.143],[178.606,52.166],[178.796,52.096],[178.864,52.033],[178.893,51.915],[178.824,51.815],[179.08,51.761],[179.267,51.644],[179.63,51.525],[179.728,51.453],[179.757,51.346],[179.718,51.278],[179.59,51.207],[179.189,51.175],[179.04,51.227],[178.789,51.392],[178.549,51.447],[178.36,51.589],[178.196,51.613]]],[[[179.544,52.206],[179.786,52.192],[180.0,52.085],[180.0,51.826],[179.836,51.728],[179.632,51.695],[179.428,51.727],[179.276,51.801],[179.208,51.906],[179.218,52.045],[179.325,52.124],[179.544,52.206]]],[[[176.98,51.99],[177.27,52.143],[177.403,52.262],[177.577,52.308],[177.833,52.263],[177.939,52.192],[177.981,52.105],[177.882,51.861],[177.809,51.796],[177.571,51.733],[177.431,51.66],[177.315,51.647],[177.135,51.689],[176.98,51.795],[176.939,51.859],[176.939,51.927],[176.98,51.99]]],[[[176.126,52.518],[176.255,52.436],[176.282,52.336],[176.216,52.243],[176.092,52.183],[175.944,52.16],[175.765,52.189],[175.645,52.258],[175.592,52.351],[175.596,52.419],[175.642,52.482],[175.772,52.545],[175.984,52.553],[176.126,52.518]]],[[[173.88,52.858],[174.033,52.914],[174.22,52.909],[174.419,52.815],[174.469,52.752],[174.475,52.682],[174.438,52.616],[174.312,52.546],[174.08,52.534],[174.033,52.332],[173.955,52.237],[173.666,52.171],[173.25,52.243],[173.151,52.298],[173.102,52.365],[173.105,52.454],[173.168,52.535],[173.471,52.654],[173.0,52.573],[172.791,52.589],[172.263,52.802],[172.199,52.862],[172.179,52.932],[172.236,53.033],[172.4,53.123],[172.555,53.177],[172.791,53.195],[173.254,53.158],[173.675,52.97],[173.726,52.91],[173.728,52.809],[173.669,52.729],[173.571,52.677],[173.789,52.689],[173.81,52.795],[173.88,52.858]]],[[[-155.667,56.09],[-155.429,56.079],[-155.257,55.979],[-155.244,55.767],[-155.333,55.66],[-155.467,55.597],[-155.64,55.582],[-155.862,55.615],[-156.017,55.711],[-156.069,55.81],[-156.017,55.922],[-155.831,56.048],[-155.667,56.09]]],[[[-145.957,59.46],[-145.975,59.389],[-146.046,59.314],[-146.307,59.232],[-146.612,59.286],[-146.684,59.342],[-146.711,59.409],[-146.689,59.485],[-146.627,59.544],[-146.39,59.631],[-146.078,59.59],[-145.998,59.536],[-145.957,59.46]]],[[[-170.949,52.808],[-170.691,52.88],[-170.463,52.847],[-170.386,52.987],[-170.301,53.051],[-170.025,53.096],[-169.907,53.18],[-169.735,53.216],[-169.533,53.189],[-169.421,53.122],[-169.371,53.026],[-169.387,52.888],[-169.132,53.084],[-169.017,53.279],[-168.814,53.413],[-168.7,53.448],[-168.613,53.57],[-168.426,53.67],[-167.982,53.749],[-167.67,53.68],[-167.545,53.608],[-167.46,53.624],[-167.403,53.725],[-167.463,53.825],[-167.454,53.91],[-167.244,54.086],[-167.126,54.13],[-166.803,54.193],[-166.411,54.186],[-166.258,54.328],[-165.643,54.476],[-165.351,54.455],[-165.255,54.409],[-165.168,54.31],[-165.082,54.31],[-165.209,54.432],[-165.264,54.556],[-165.257,54.633],[-165.13,54.74],[-164.946,54.798],[-164.805,54.984],[-164.68,55.056],[-164.531,55.099],[-164.337,55.103],[-164.024,55.205],[-163.57,55.236],[-163.431,55.295],[-163.501,55.368],[-163.509,55.434],[-163.395,55.562],[-163.115,55.62],[-162.954,55.585],[-162.866,55.529],[-162.435,55.833],[-161.925,56.055],[-161.201,56.195],[-160.785,56.165],[-160.629,56.382],[-160.402,56.522],[-159.93,56.727],[-159.511,56.825],[-159.004,57.057],[-158.893,57.191],[-158.578,57.423],[-158.045,57.672],[-157.943,58.125],[-157.874,58.229],[-157.908,58.334],[-157.851,58.481],[-158.141,58.435],[-158.375,58.454],[-158.466,58.355],[-158.64,58.256],[-158.923,58.219],[-159.146,58.249],[-159.308,58.306],[-159.653,58.636],[-159.931,58.587],[-160.014,58.517],[-160.177,58.465],[-160.368,58.464],[-160.559,58.516],[-160.668,58.437],[-160.93,58.371],[-161.213,58.383],[-161.371,58.454],[-161.62,58.388],[-161.844,58.385],[-162.4,58.509],[-162.509,58.601],[-162.498,58.709],[-162.368,58.794],[-162.13,58.857],[-162.138,58.915],[-162.309,59.081],[-162.402,59.265],[-162.348,59.374],[-162.16,59.533],[-162.225,59.638],[-162.422,59.823],[-163.23,59.656],[-163.613,59.622],[-163.982,59.628],[-164.368,59.71],[-164.505,59.81],[-164.566,59.925],[-164.824,60.087],[-165.322,60.256],[-165.313,60.122],[-165.186,60.008],[-165.204,59.901],[-165.253,59.838],[-165.467,59.743],[-165.75,59.715],[-165.835,59.648],[-166.015,59.591],[-166.302,59.587],[-166.502,59.669],[-166.782,59.698],[-167.309,59.848],[-167.601,59.967],[-167.773,60.131],[-167.814,60.221],[-167.752,60.318],[-167.654,60.366],[-167.375,60.415],[-167.065,60.409],[-166.637,60.544],[-166.224,60.613],[-166.015,60.602],[-165.79,60.525],[-165.789,60.588],[-165.716,60.666],[-165.398,60.781],[-165.538,60.908],[-165.742,60.941],[-165.885,61.006],[-166.003,61.155],[-166.169,61.224],[-166.273,61.338],[-166.459,61.423],[-166.565,61.551],[-166.56,61.679],[-166.466,61.873],[-166.359,61.952],[-166.391,62.043],[-166.337,62.136],[-166.215,62.211],[-165.982,62.251],[-165.597,62.536],[-165.259,62.692],[-165.282,62.792],[-165.254,62.9],[-164.906,63.242],[-164.555,63.387],[-164.111,63.441],[-163.556,63.379],[-163.232,63.248],[-163.111,63.335],[-162.885,63.41],[-163.054,63.477],[-163.12,63.584],[-163.038,63.692],[-162.9,63.763],[-162.378,63.82],[-162.169,63.785],[-161.99,63.691],[-161.799,63.641],[-161.605,63.647],[-161.418,63.662],[-161.179,63.818],[-161.333,64.021],[-161.361,64.166],[-161.466,64.215],[-161.764,64.24],[-161.92,64.321],[-161.953,64.397],[-161.882,64.53],[-162.202,64.432],[-162.252,64.335],[-162.343,64.271],[-162.602,64.182],[-162.769,64.165],[-163.386,64.259],[-163.763,64.409],[-164.289,64.391],[-164.661,64.293],[-165.001,64.27],[-166.424,64.437],[-166.673,64.514],[-166.804,64.599],[-166.894,64.694],[-166.896,64.827],[-167.358,65.089],[-167.383,65.127],[-167.373,65.221],[-167.622,65.249],[-168.319,65.439],[-168.475,65.515],[-168.564,65.631],[-168.849,65.562],[-169.161,65.589],[-169.343,65.674],[-169.385,65.775],[-169.27,65.884],[-168.948,65.948],[-168.628,65.906],[-168.522,65.853],[-168.473,65.787],[-168.323,65.853],[-167.801,65.969],[-165.958,66.515],[-164.864,66.726],[-164.364,66.778],[-163.619,66.776],[-163.283,66.685],[-163.198,66.622],[-163.181,66.551],[-163.235,66.484],[-163.442,66.357],[-163.413,66.275],[-163.167,66.259],[-162.721,66.29],[-162.349,66.243],[-162.401,66.336],[-162.328,66.465],[-162.497,66.553],[-162.861,66.64],[-163.083,66.845],[-163.843,66.935],[-164.127,67.025],[-164.206,67.088],[-164.266,67.3],[-164.494,67.495],[-165.691,67.907],[-166.228,67.998],[-166.57,68.146],[-166.949,68.171],[-167.178,68.228],[-167.308,68.324],[-167.3,68.396],[-167.139,68.492],[-166.772,68.576],[-166.699,68.715],[-166.719,68.919],[-166.623,68.992],[-166.473,69.041],[-166.143,69.069],[-165.145,69.059],[-164.495,69.104],[-164.021,69.231],[-163.74,69.393],[-163.685,69.465],[-163.685,69.675],[-163.505,69.907],[-162.952,70.257],[-162.648,70.379],[-162.047,70.525],[-161.267,70.48],[-160.811,70.624],[-160.053,70.932],[-159.546,71.03],[-159.147,71.066],[-158.772,71.012],[-158.176,71.016],[-157.685,71.176],[-157.227,71.428],[-156.762,71.566],[-156.548,71.59],[-156.092,71.548],[-155.926,71.49],[-155.766,71.389],[-155.279,71.323],[-154.951,71.328],[-154.738,71.297],[-154.395,71.215],[-154.076,71.067],[-153.167,71.11],[-152.111,71.022],[-151.924,70.978],[-151.711,70.882],[-151.676,70.812],[-151.717,70.745],[-151.485,70.721],[-151.238,70.627],[-150.862,70.681],[-150.18,70.663],[-149.137,70.729],[-148.567,70.639],[-148.269,70.537],[-147.613,70.469],[-147.34,70.379],[-145.718,70.346],[-144.864,70.177],[-143.671,70.301],[-143.132,70.294],[-142.576,70.221],[-142.238,70.143],[-141.949,70.019],[-141.53,69.973],[-140.571,69.748],[-140.491,69.651],[-140.638,60.446],[-140.385,60.471],[-140.053,60.399],[-139.841,60.488],[-139.647,60.513],[-139.057,60.524],[-138.852,60.48],[-138.758,60.423],[-138.708,60.337],[-138.796,60.126],[-138.427,60.011],[-138.315,59.864],[-137.361,59.364],[-137.232,59.226],[-136.818,59.335],[-136.795,59.528],[-136.704,59.594],[-136.642,59.694],[-136.54,59.744],[-136.061,59.834],[-135.592,59.963],[-135.448,59.971],[-135.24,59.928],[-134.72,59.656],[-134.666,59.571],[-134.674,59.455],[-134.649,59.417],[-134.49,59.381],[-134.354,59.283],[-134.205,59.226],[-134.071,59.113],[-133.978,58.976],[-133.606,58.853],[-133.103,58.499],[-133.057,58.437],[-133.058,58.367],[-132.858,58.221],[-132.775,58.091],[-132.063,57.421],[-131.933,57.273],[-131.903,57.192],[-131.746,57.116],[-131.706,57.052],[-131.727,56.953],[-131.595,56.888],[-131.541,56.773],[-131.38,56.742],[-130.941,56.564],[-130.59,56.496],[-130.444,56.409],[-130.264,56.36],[-130.167,56.282],[-129.881,56.234],[-129.749,56.12],[-129.696,55.972],[-129.716,55.853],[-129.832,55.732],[-129.826,55.58],[-129.679,55.307],[-129.687,55.235],[-129.823,55.128],[-130.12,54.797],[-130.549,54.603],[-130.887,54.59],[-131.033,54.623],[-131.176,54.706],[-131.408,54.684],[-131.641,54.764],[-131.776,54.572],[-131.988,54.514],[-132.436,54.561],[-132.58,54.505],[-132.828,54.499],[-133.034,54.552],[-133.225,54.715],[-133.306,54.638],[-133.402,54.601],[-133.636,54.6],[-133.825,54.703],[-133.854,54.852],[-133.737,54.973],[-133.506,55.014],[-133.837,55.11],[-134.091,55.38],[-134.11,55.489],[-133.952,55.673],[-134.033,55.693],[-134.27,55.639],[-134.557,55.715],[-134.66,55.874],[-134.631,55.993],[-134.832,56.016],[-135.022,56.114],[-135.521,56.657],[-135.667,56.757],[-135.693,56.818],[-135.93,56.817],[-136.128,56.902],[-136.168,56.969],[-136.137,57.13],[-136.186,57.218],[-136.174,57.329],[-136.428,57.545],[-136.476,57.631],[-136.661,57.698],[-136.86,57.852],[-136.9,58.02],[-136.88,58.083],[-137.123,58.216],[-137.312,58.25],[-137.867,58.477],[-138.002,58.586],[-138.195,58.684],[-138.257,58.745],[-138.276,58.818],[-138.405,58.886],[-138.727,58.949],[-139.14,59.114],[-139.683,59.254],[-140.104,59.419],[-140.208,59.531],[-140.636,59.529],[-140.976,59.576],[-142.077,59.854],[-142.782,59.931],[-143.82,59.822],[-144.06,59.833],[-144.411,59.659],[-144.556,59.635],[-144.757,59.651],[-144.908,59.719],[-144.962,59.818],[-144.879,59.946],[-144.746,60.033],[-144.979,60.119],[-145.356,60.149],[-145.75,60.277],[-146.236,60.172],[-146.456,60.081],[-146.789,60.092],[-146.997,59.992],[-147.061,59.88],[-147.262,59.725],[-147.735,59.615],[-148.078,59.633],[-148.219,59.699],[-148.266,59.765],[-148.443,59.776],[-148.647,59.744],[-148.992,59.768],[-149.172,59.705],[-149.232,59.618],[-149.33,59.568],[-149.817,59.479],[-150.067,59.295],[-150.631,59.138],[-150.788,59.047],[-151.124,59.03],[-151.286,58.946],[-151.67,58.919],[-151.726,58.839],[-151.826,58.78],[-152.069,58.733],[-152.016,58.674],[-152.004,58.57],[-151.539,58.372],[-151.453,58.247],[-151.514,58.113],[-151.626,58.038],[-152.01,57.978],[-152.003,57.785],[-151.871,57.725],[-151.812,57.619],[-151.852,57.537],[-151.953,57.457],[-151.924,57.376],[-151.953,57.311],[-152.163,57.199],[-152.401,57.19],[-152.56,57.119],[-152.684,57.001],[-152.937,56.937],[-153.074,56.853],[-153.371,56.821],[-153.479,56.732],[-153.627,56.679],[-153.557,56.598],[-153.57,56.494],[-153.668,56.406],[-153.803,56.349],[-154.082,56.323],[-154.402,56.34],[-154.549,56.253],[-154.722,56.219],[-154.937,56.248],[-155.089,56.36],[-155.103,56.48],[-155.013,56.598],[-154.895,56.674],[-154.597,56.776],[-154.626,56.821],[-154.774,56.872],[-154.839,56.932],[-154.859,57.099],[-154.992,57.134],[-155.09,57.202],[-155.132,57.272],[-155.133,57.389],[-154.872,57.641],[-154.534,57.801],[-154.251,57.854],[-154.189,57.925],[-154.762,57.826],[-154.975,57.714],[-155.072,57.614],[-155.359,57.547],[-155.541,57.409],[-155.734,57.369],[-155.849,57.292],[-156.014,57.253],[-156.04,57.111],[-156.324,56.853],[-156.543,56.804],[-156.673,56.738],[-156.836,56.716],[-156.723,56.656],[-156.66,56.573],[-156.676,56.471],[-156.756,56.405],[-156.628,56.386],[-156.493,56.312],[-156.445,56.175],[-156.368,56.091],[-156.371,55.969],[-156.483,55.872],[-156.609,55.836],[-156.784,55.837],[-157.032,55.954],[-157.131,56.19],[-157.097,56.282],[-157.012,56.352],[-157.49,56.368],[-157.503,56.267],[-157.574,56.202],[-157.722,56.145],[-157.855,56.135],[-158.106,56.012],[-158.151,55.918],[-158.274,55.849],[-158.39,55.827],[-158.419,55.756],[-158.494,55.699],[-158.791,55.631],[-159.047,55.652],[-159.27,55.581],[-159.368,55.476],[-159.464,55.425],[-159.262,55.347],[-159.213,55.288],[-159.203,55.211],[-159.109,55.169],[-158.945,55.023],[-158.897,54.91],[-158.933,54.835],[-159.016,54.769],[-159.233,54.696],[-159.393,54.598],[-159.586,54.575],[-159.769,54.613],[-159.882,54.7],[-159.914,54.818],[-159.998,54.741],[-160.105,54.704],[-160.357,54.714],[-160.522,54.816],[-160.547,54.954],[-160.929,54.951],[-161.104,55.046],[-161.239,54.993],[-161.421,54.987],[-161.504,54.929],[-161.657,54.887],[-161.919,54.902],[-162.039,54.738],[-162.22,54.665],[-162.479,54.678],[-162.658,54.772],[-162.781,54.756],[-162.743,54.678],[-162.147,54.518],[-162.066,54.426],[-162.089,54.31],[-162.169,54.249],[-162.316,54.201],[-162.686,54.195],[-163.008,54.293],[-163.124,54.39],[-163.145,54.484],[-163.303,54.506],[-163.607,54.432],[-164.035,54.447],[-164.12,54.347],[-164.269,54.275],[-164.673,54.214],[-164.628,54.128],[-164.647,54.049],[-164.724,53.967],[-164.831,53.916],[-165.311,53.864],[-165.613,53.915],[-165.788,53.866],[-165.847,53.707],[-165.967,53.603],[-166.261,53.495],[-166.468,53.352],[-166.629,53.287],[-167.025,53.246],[-167.457,53.083],[-167.731,53.067],[-167.951,53.133],[-168.08,53.095],[-168.255,52.93],[-168.587,52.771],[-169.027,52.651],[-169.253,52.666],[-169.395,52.772],[-169.478,52.669],[-169.629,52.604],[-169.849,52.612],[-170.077,52.55],[-170.31,52.562],[-170.496,52.431],[-170.73,52.365],[-170.958,52.386],[-171.046,52.319],[-171.25,52.275],[-171.493,52.323],[-171.594,52.414],[-171.598,52.538],[-171.498,52.644],[-171.321,52.705],[-171.098,52.681],[-170.949,52.808]],[[-153.628,58.221],[-153.145,58.524],[-153.001,58.578],[-152.922,58.666],[-152.607,58.789],[-152.685,58.849],[-152.71,58.922],[-152.608,59.078],[-152.447,59.14],[-152.242,59.145],[-152.332,59.263],[-152.33,59.347],[-152.181,59.517],[-152.056,59.577],[-152.205,59.687],[-152.238,59.798],[-152.073,60.068],[-151.949,60.177],[-152.201,60.154],[-152.241,60.01],[-152.443,59.802],[-152.672,59.727],[-152.801,59.585],[-153.076,59.487],[-153.008,59.397],[-153.025,59.304],[-153.132,59.219],[-153.333,59.163],[-153.024,59.017],[-152.919,58.901],[-152.926,58.82],[-153.187,58.611],[-153.428,58.491],[-153.61,58.449],[-153.696,58.304],[-153.79,58.242],[-153.939,58.049],[-153.773,58.079],[-153.628,58.221]],[[-147.025,60.555],[-146.963,60.545],[-146.917,60.578],[-146.971,60.613],[-147.025,60.555]]]]}}]}